OBJECT_NAME,OBJECT_ID,EPOCH,MEAN_MOTION,ECCENTRICITY,INCLINATION,RA_OF_ASC_NODE,ARG_OF_PERICENTER,MEAN_ANOMALY,EPHEMERIS_TYPE,CLASSIFICATION_TYPE,NORAD_CAT_ID,ELEMENT_SET_NO,REV_AT_EPOCH,BSTAR,MEAN_MOTION_DOT,MEAN_MOTION_DDOT
STARLINK-2389,2021-018X,2024-03-31T13:58:53.719680,15.06420069,.0001319,53.0524,185.4352,103.5257,256.5879,0,U,47808,999,16999,.12787E-2,.18826E-3,0
STARLINK-2391,2021-018Z,2024-03-31T14:42:01.607904,15.06407821,.0001403,53.0535,200.2997,92.5451,267.5699,0,U,47810,999,16978,.79486E-3,.1158E-3,0
STARLINK-2392,2021-018AA,2024-03-31T12:27:59.999616,15.06413325,.0001402,53.0530,170.7169,97.1571,262.9578,0,U,47811,999,16979,.85111E-3,.12423E-3,0
STARLINK-2393,2021-018AB,2024-03-31T13:22:24.314304,15.06415356,.0001285,53.0527,200.5491,106.1005,254.0126,0,U,47812,999,16971,.12982E-2,.19116E-3,0
STARLINK-2394,2021-018AC,2024-03-31T12:59:53.110752,15.06394007,.0001341,53.0524,170.6173,105.3499,254.7638,0,U,47813,999,17019,.12039E-2,.17693E-3,0
STARLINK-2395,2021-018AD,2024-03-31T16:45:25.140096,15.06429314,.000157,53.0533,189.9154,70.8266,289.2893,0,U,47814,999,16955,.12676E-2,.18665E-3,0
STARLINK-2396,2021-018AE,2024-03-31T12:44:35.131488,15.06419334,.0001598,53.0538,185.6652,97.2449,262.8721,0,U,47815,999,16992,.56113E-3,.8091E-4,0
STARLINK-2399,2021-018AF,2024-03-31T12:57:11.763072,15.06412054,.0001548,53.0527,190.6265,89.6875,270.4291,0,U,47816,999,16952,.40887E-3,.5816E-4,0
STARLINK-2400,2021-018AG,2024-03-31T13:23:43.085184,15.06422765,.000164,53.0552,190.5449,83.0122,277.1054,0,U,47817,999,16985,-.20223E-5,-.312E-5,0
STARLINK-2401,2021-018AH,2024-03-31T13:31:06.560832,15.06401111,.0001574,53.0537,195.9843,84.9879,275.1290,0,U,47818,999,16978,.30614E-3,.4281E-4,0
STARLINK-2402,2021-018AJ,2024-03-31T13:27:40.547808,15.06426625,.0001455,53.0537,190.5237,93.5827,266.5328,0,U,47819,999,16992,.15554E-2,.22979E-3,0
STARLINK-2403,2021-018AK,2024-03-31T14:36:43.093440,15.06408564,.0001476,53.0551,200.3139,96.0094,264.1064,0,U,47820,999,16978,.44713E-3,.6386E-4,0
STARLINK-2406,2021-018AL,2024-03-31T14:06:11.147328,15.06435917,.0001287,53.0529,190.4212,82.2061,277.9074,0,U,47821,999,16986,.15073E-2,.22263E-3,0
STARLINK-2407,2021-018AM,2024-03-31T14:19:25.004352,15.06412913,.0001263,53.0539,200.3581,92.9661,267.1472,0,U,47822,999,16973,.21238E-3,.2884E-4,0
STARLINK-2408,2021-018AN,2024-03-31T13:06:26.924544,15.06426423,.0001061,53.0536,190.5877,93.3638,266.7472,0,U,47823,999,16952,.93803E-3,.13728E-3,0
STARLINK-2409,2021-018AP,2024-03-31T12:51:53.058528,15.06419137,.0001345,53.0528,190.6419,95.6670,264.4472,0,U,47824,999,16952,.14486E-2,.21372E-3,0
STARLINK-2410,2021-018AQ,2024-03-31T13:18:25.348320,15.06408989,.0001937,53.0535,190.5619,124.1261,235.9912,0,U,47825,999,16986,.60396E-3,.8728E-4,0
STARLINK-2411,2021-018AR,2024-03-31T13:13:06.889152,15.06414401,.0001755,53.0537,190.5769,73.6630,286.4552,0,U,47826,999,16986,.1589E-2,.23475E-3,0
STARLINK-2413,2021-018AS,2024-03-31T12:47:57.368832,15.06413930,.0001274,53.0534,180.8980,101.4652,258.6480,0,U,47827,999,17005,.1338E-2,.19712E-3,0
STARLINK-2415,2021-018AT,2024-03-31T14:26:05.114976,15.06417189,.000083,53.0532,200.3506,94.4199,265.6885,0,U,47828,999,16973,.36955E-3,.523E-4,0
STARLINK-2416,2021-018AU,2024-03-31T13:17:05.431776,15.06413582,.0001533,53.0534,200.5617,122.9723,237.1413,0,U,47829,999,16971,.45291E-3,.6473E-4,0
STARLINK-2419,2021-018AV,2024-03-31T13:11:48.752448,15.06401994,.0001375,53.0540,200.5861,107.9593,252.1546,0,U,47830,999,16971,.94084E-3,.13761E-3,0
STARLINK-2420,2021-018AW,2024-03-31T11:36:55.414944,15.06414187,.0001637,53.0535,175.8783,96.0305,264.0871,0,U,47831,999,17011,.84129E-3,.12276E-3,0
STARLINK-2422,2021-018AX,2024-03-31T12:09:25.615008,15.06418865,.0001329,53.0532,190.7771,109.2741,250.8392,0,U,47832,999,16952,.11175E-2,.16411E-3,0
STARLINK-2423,2021-018AY,2024-03-31T14:22:08.423040,15.06394321,.0001218,53.0527,190.3606,111.5939,248.5180,0,U,47833,999,16953,.92498E-3,.13521E-3,0
STARLINK-2424,2021-018AZ,2024-03-31T13:02:31.143264,15.06440201,.000142,53.0533,190.6113,98.8140,261.3010,0,U,47834,999,16991,.17021E-2,.2519E-3,0
STARLINK-2425,2021-018BA,2024-03-31T13:41:39.998976,15.06425760,.0001289,53.0535,195.6143,92.3610,267.7526,0,U,47835,999,16978,.14854E-2,.21928E-3,0
STARLINK-2426,2021-018BB,2024-03-31T13:29:03.080544,15.06421188,.0001265,53.0545,190.6132,107.2425,252.8702,0,U,47836,999,16986,.13591E-2,.20032E-3,0
STARLINK-2427,2021-018BC,2024-03-31T12:06:48.210624,15.06418658,.0000898,53.0528,170.7831,91.1780,268.9311,0,U,47837,999,17014,.14908E-2,.22005E-3,0
STARLINK-2429,2021-018BD,2024-03-31T14:00:52.625952,15.06422632,.0001447,53.0557,190.4305,97.5902,262.5251,0,U,47838,999,16986,.17366E-3,.2308E-4,0
