STARLINK-2389           
1 47808U 21018X   24091.58256620  .00018826  00000+0  12787-2 0  9990
2 47808  53.0524 185.4352 0001319 103.5257 256.5879 15.06420069169992
STARLINK-2391           
1 47810U 21018Z   24091.61251861  .00011580  00000+0  79486-3 0  9999
2 47810  53.0535 200.2997 0001403  92.5451 267.5699 15.06407821169785
STARLINK-2392           
1 47811U 21018AA  24091.51944444  .00012423  00000+0  85111-3 0  9994
2 47811  53.0530 170.7169 0001402  97.1571 262.9578 15.06413325169798
STARLINK-2393           
1 47812U 21018AB  24091.55722586  .00019116  00000+0  12982-2 0  9991
2 47812  53.0527 200.5491 0001285 106.1005 254.0126 15.06415356169716
STARLINK-2394           
1 47813U 21018AC  24091.54158693  .00017693  00000+0  12039-2 0  9994
2 47813  53.0524 170.6173 0001341 105.3499 254.7638 15.06394007170197
STARLINK-2395           
1 47814U 21018AD  24091.69820764  .00018665  00000+0  12676-2 0  9993
2 47814  53.0533 189.9154 0001570  70.8266 289.2893 15.06429314169556
STARLINK-2396           
1 47815U 21018AE  24091.53096217  .00008091  00000+0  56113-3 0  9992
2 47815  53.0538 185.6652 0001598  97.2449 262.8721 15.06419334169923
STARLINK-2399           
1 47816U 21018AF  24091.53971948  .00005816  00000+0  40887-3 0  9999
2 47816  53.0527 190.6265 0001548  89.6875 270.4291 15.06412054169526
STARLINK-2400           
1 47817U 21018AG  24091.55813756 -.00000312  00000+0 -20223-5 0  9996
2 47817  53.0552 190.5449 0001640  83.0122 277.1054 15.06422765169851
STARLINK-2401           
1 47818U 21018AH  24091.56327038  .00004281  00000+0  30614-3 0  9991
2 47818  53.0537 195.9843 0001574  84.9879 275.1290 15.06401111169781
STARLINK-2402           
1 47819U 21018AJ  24091.56088597  .00022979  00000+0  15554-2 0  9995
2 47819  53.0537 190.5237 0001455  93.5827 266.5328 15.06426625169926
STARLINK-2403           
1 47820U 21018AK  24091.60883210  .00006386  00000+0  44713-3 0  9991
2 47820  53.0551 200.3139 0001476  96.0094 264.1064 15.06408564169789
STARLINK-2406           
1 47821U 21018AL  24091.58762902  .00022263  00000+0  15073-2 0  9991
2 47821  53.0529 190.4212 0001287  82.2061 277.9074 15.06435917169861
STARLINK-2407           
1 47822U 21018AM  24091.59681718  .00002884  00000+0  21238-3 0  9996
2 47822  53.0539 200.3581 0001263  92.9661 267.1472 15.06412913169731
STARLINK-2408           
1 47823U 21018AN  24091.54614496  .00013728  00000+0  93803-3 0  9997
2 47823  53.0536 190.5877 0001061  93.3638 266.7472 15.06426423169525
STARLINK-2409           
1 47824U 21018AP  24091.53603077  .00021372  00000+0  14486-2 0  9993
2 47824  53.0528 190.6419 0001345  95.6670 264.4472 15.06419137169525
STARLINK-2410           
1 47825U 21018AQ  24091.55446005  .00008728  00000+0  60396-3 0  9994
2 47825  53.0535 190.5619 0001937 124.1261 235.9912 15.06408989169868
STARLINK-2411           
1 47826U 21018AR  24091.55077418  .00023475  00000+0  15890-2 0  9997
2 47826  53.0537 190.5769 0001755  73.6630 286.4552 15.06414401169860
STARLINK-2413           
1 47827U 21018AS  24091.53330288  .00019712  00000+0  13380-2 0  9994
2 47827  53.0534 180.8980 0001274 101.4652 258.6480 15.06413930170055
STARLINK-2415           
1 47828U 21018AT  24091.60144809  .00005230  00000+0  36955-3 0  9999
2 47828  53.0532 200.3506 0000830  94.4199 265.6885 15.06417189169730
STARLINK-2416           
1 47829U 21018AU  24091.55353509  .00006473  00000+0  45291-3 0  9996
2 47829  53.0534 200.5617 0001533 122.9723 237.1413 15.06413582169711
STARLINK-2419           
1 47830U 21018AV  24091.54986982  .00013761  00000+0  94084-3 0  9996
2 47830  53.0540 200.5861 0001375 107.9593 252.1546 15.06401994169711
STARLINK-2420           
1 47831U 21018AW  24091.48397471  .00012276  00000+0  84129-3 0  9998
2 47831  53.0535 175.8783 0001637  96.0305 264.0871 15.06414187170110
STARLINK-2422           
1 47832U 21018AX  24091.50654647  .00016411  00000+0  11175-2 0  9998
2 47832  53.0532 190.7771 0001329 109.2741 250.8392 15.06418865169521
STARLINK-2423           
1 47833U 21018AY  24091.59870860  .00013521  00000+0  92498-3 0  9992
2 47833  53.0527 190.3606 0001218 111.5939 248.5180 15.06394321169531
STARLINK-2424           
1 47834U 21018AZ  24091.54341601  .00025190  00000+0  17021-2 0  9997
2 47834  53.0533 190.6113 0001420  98.8140 261.3010 15.06440201169917
STARLINK-2425           
1 47835U 21018BA  24091.57060184  .00021928  00000+0  14854-2 0  9991
2 47835  53.0535 195.6143 0001289  92.3610 267.7526 15.06425760169782
STARLINK-2426           
1 47836U 21018BB  24091.56184121  .00020032  00000+0  13591-2 0  9991
2 47836  53.0545 190.6132 0001265 107.2425 252.8702 15.06421188169861
STARLINK-2427           
1 47837U 21018BC  24091.50472466  .00022005  00000+0  14908-2 0  9993
2 47837  53.0528 170.7831 0000898  91.1780 268.9311 15.06418658170149
STARLINK-2429           
1 47838U 21018BD  24091.58394243  .00002308  00000+0  17366-3 0  9994
2 47838  53.0557 190.4305 0001447  97.5902 262.5251 15.06422632169861
